STARLINK-2033           
1 47650U 21012AG  23269.86901563  .00018514  00000+0  12596-2 0  9991
2 47650  53.0531 108.6226 0001252  82.2650 277.8481 15.06368031145380
STARLINK-2035           
1 47651U 21012AH  23269.84138226  .00016383  00000+0  11172-2 0  9999
2 47651  53.0537 128.7975 0001555  54.4486 305.6647 15.06365454145116
STARLINK-2036           
1 47652U 21012AJ  23269.86349786  .00028485  00000+0  19241-2 0  9998
2 47652  53.0530 128.6535 0001211 109.2667 250.8453 15.06388733145111
STARLINK-2037           
1 47653U 21012AK  23269.79161466  .00003174  00000+0  23201-3 0  9998
2 47653  53.0548 108.9723 0001315  66.4805 293.6322 15.06374018145373
STARLINK-2038           
1 47654U 21012AL  23269.86717440  .00025681  00000+0  17376-2 0  9998
2 47654  53.0530 128.6366 0001314 125.5360 234.5752 15.06380510145116
STARLINK-2039           
1 47655U 21012AM  23269.85980524  .00013119  00000+0  89842-3 0  9994
2 47655  53.0539 128.6667 0001170  86.4757 273.6366 15.06382826145112
STARLINK-2040           
1 47656U 21012AN  23269.87638859  .00000832  00000+0  74761-4 0  9991
2 47656  53.0534 108.5919 0001544  82.4074 277.7091 15.06377854145393
STARLINK-2041           
1 47657U 21012AP  23269.88192979  .00009533  00000+0  65837-3 0  9991
2 47657  53.0540 128.5655 0001445 104.4805 255.6344 15.06378846145115
STARLINK-2042           
1 47658U 21012AQ  23269.87454717  .00025954  00000+0  17555-2 0  9990
2 47658  53.0535 128.5991 0001371 120.1688 239.9437 15.06386668145136
STARLINK-2043           
1 47659U 21012AR  23269.56861381  .00024399  00000+0  16506-2 0  9993
2 47659  53.0556   9.9728 0001450  82.6061 277.5093 15.06414307146729
STARLINK-2044           
1 47660U 21012AS  23269.52168667  .00031806  00000+0  21417-2 0  9996
2 47660  53.0551   0.8104 0001350 105.0004 255.1135 15.06449204146857
STARLINK-2051           
1 47661U 21012AT  23269.83952612  .00018669  00000+0  12697-2 0  9994
2 47661  53.0535 108.7588 0001611 102.4501 257.6669 15.06376949145377
STARLINK-2052           
1 47662U 21012AU  23269.82015071  .00009530  00000+0  65786-3 0  9998
2 47662  53.0543 108.8465 0001226 126.6591 233.4510 15.06397471145393
STARLINK-2053           
1 47663U 21012AV  23269.55207171  .00013224  00000+0  90509-3 0  9999
2 47663  53.0556  30.3669 0001249  67.0362 293.0758 15.06397140145942
STARLINK-2054           
1 47664U 21012AW  23269.88745348  .00024787  00000+0  16782-2 0  9995
2 47664  53.0533 108.5447 0001292  98.6190 261.4945 15.06375268145402
STARLINK-2056           
1 47665U 21012AX  23269.86764572  .00023925  00000+0  16209-2 0  9991
2 47665  53.0538 103.6819 0001540  84.7139 275.4026 15.06370936145460
STARLINK-2057           
1 47666U 21012AY  23269.86399169 -.00000469  00000+0 -12633-4 0  9997
2 47666  53.0534 104.0039 0001270  90.8311 269.2824 15.06386818145469
STARLINK-2058           
1 47667U 21012AZ  23269.85241630  .00012848  00000+0  88032-3 0  9993
2 47667  53.0526 128.6999 0003781 173.8814 186.2221 15.06377606145090
STARLINK-2059           
1 47668U 21012BA  23269.89482209  .00023466  00000+0  15904-2 0  9992
2 47668  53.0533 108.5087 0001653  79.2319 280.8856 15.06367910145406
STARLINK-2062           
1 47670U 21012BC  23269.77686481  .00022415  00000+0  15197-2 0  9997
2 47670  53.0543 109.0384 0001581 101.1019 259.0148 15.06380792145379
STARLINK-2064           
1 47671U 21012BD  23269.82479467  .00023277  00000+0  15769-2 0  9990
2 47671  53.0545 108.8250 0001227  82.3524 277.7605 15.06388419145390
STARLINK-2065           
1 47672U 21012BE  23269.80359479  .00020887  00000+0  14177-2 0  9995
2 47672  53.0534  98.9191 0000837  90.6020 269.5065 15.06381011145504
STARLINK-2066           
1 47673U 21012BF  23269.84690408  .00025963  00000+0  17573-2 0  9993
2 47673  53.0545 108.7235 0001873  73.0325 287.0869 15.06360513145387
STARLINK-2067           
1 47674U 21012BG  23269.79434910 -.00006814  00000+0 -43923-3 0  9997
2 47674  53.0536 108.9504 0000788  79.2260 280.8818 15.06379839145385
STARLINK-2078           
1 47675U 21012BH  23269.78792150  .00023172  00000+0  15696-2 0  9999
2 47675  53.0533 108.9892 0001249 101.6503 258.4626 15.06395452145383
STARLINK-2083           
1 47676U 21012BJ  23269.51793529  .00022705  00000+0  15380-2 0  9993
2 47676  53.0552   0.2010 0001589  88.6651 271.4520 15.06406663146865
STARLINK-2090           
1 47677U 21012BK  23269.84042675  .00015995  00000+0  10907-2 0  9992
2 47677  53.0543 128.7430 0001677 137.1347 222.9773 15.06384751145108
STARLINK-2095           
1 47679U 21012BM  23269.80356914 -.00000874  00000+0 -39816-4 0  9998
2 47679  53.0542 128.9187 0001076  94.1539 265.9573 15.06391015145115
STARLINK-2068           
1 47722U 21017A   23269.38203792  .00012234  00000+0  83915-3 0  9999
2 47722  53.0533 256.0519 0001465 108.1169 251.9980 15.06384203143041
STARLINK-2107           
1 47723U 21017B   23269.05810210  .00016289  00000+0  11097-2 0  9998
2 47723  53.0526 192.2638 0001628 140.7953 219.3155 15.06406407143875
STARLINK-2116           
1 47724U 21017C   23269.22765801  .00001865  00000+0  14408-3 0  9997
2 47724  53.0539 191.5038 0001303 114.6331 245.4794 15.06392036143866
STARLINK-2125           
1 47725U 21017D   23269.26176139  .00002703  00000+0  20033-3 0  9995
2 47725  53.0528 261.3503 0001402  83.3314 276.7835 15.06395870142907
STARLINK-2126           
1 47726U 21017E   23269.36273841  .00024383  00000+0  15816-2 0  9995
2 47726  53.0534 260.7232 0002934  63.1097 297.0193 15.07969386142916
STARLINK-2129           
1 47727U 21017F   23269.19815123  .00000765  00000+0  70279-4 0  9996
2 47727  53.0539 181.6370 0000992  82.6331 277.4770 15.06377421144046
STARLINK-2131           
1 47728U 21017G   23269.28754240  .00020873  00000+0  14147-2 0  9991
2 47728  53.0528 261.2343 0001613  78.7016 281.4154 15.06435099142963
STARLINK-2132           
1 47729U 21017H   23269.84740044  .00016871  00000+0  11495-2 0  9997
2 47729  53.0541 203.9262 0001699 109.2112 250.9061 15.06377849143757
STARLINK-2140           
1 47730U 21017J   23269.31011988  .00021101  00000+0  14298-2 0  9995
2 47730  53.0537 276.1432 0001557 104.4202 255.6960 15.06437061142702
STARLINK-2141           
1 47731U 21017K   23269.31610766  .00019926  00000+0  13515-2 0  9998
2 47731  53.0525 271.1097 0001553  85.6498 274.4668 15.06435503142786
STARLINK-2142           
1 47732U 21017L   23269.88608612  .00025518  00000+0  17272-2 0  9996
2 47732  53.0539 183.7868 0001799 166.3876 193.7161 15.06369555144051
STARLINK-2143           
1 47733U 21017M   23269.30413058  .00019204  00000+0  13034-2 0  9999
2 47733  53.0525 281.1631 0001464  98.8585 261.2570 15.06434853142689
STARLINK-2144           
1 47734U 21017N   23269.32348242  .00016140  00000+0  10991-2 0  9999
2 47734  53.0527 271.0738 0001404  78.2131 281.9015 15.06428453142795
STARLINK-2146           
1 47735U 21017P   23269.80405764  .00015554  00000+0  10606-2 0  9997
2 47735  53.0534 194.0803 0001521  81.0323 279.0838 15.06406772143899
STARLINK-2147           
1 47736U 21017Q   23269.35756839  .00036691  00000+0  24652-2 0  9991
2 47736  53.0521 260.9237 0001608  89.6312 270.4861 15.06461581142976
STARLINK-2148           
1 47737U 21017R   23269.86276661  .00001667  00000+0  58674-4 0  9996
2 47737  53.0542  83.6178 0001089 108.9188 251.1931 15.35406411145524
STARLINK-2149           
1 47738U 21017S   23269.19911467  .00023477  00000+0  15882-2 0  9998
2 47738  53.0530 261.9022 0001389  74.7647 285.3495 15.06435447142940
STARLINK-2150           
1 47739U 21017T   23269.28709479  .00010085  00000+0  69518-3 0  9994
2 47739  53.0534 286.2369 0001798  73.9152 286.2035 15.06389222142618
STARLINK-2152           
1 47740U 21017U   23269.26820783  .00002326  00000+0  17496-3 0  9993
2 47740  53.0533 271.3219 0001293  91.0216 269.0921 15.06399525142812
STARLINK-2154           
1 47741U 21017V   23269.28294660  .00022372  00000+0  15148-2 0  9999
2 47741  53.0529 271.2595 0001564 101.3673 258.7491 15.06429812142772
STARLINK-2156           
1 47742U 21017W   23269.36127808  .00022172  00000+0  15010-2 0  9994
2 47742  53.0516 260.9066 0001451  87.8592 272.2563 15.06441911142977
STARLINK-2157           
1 47743U 21017X   23269.25436922  .00019616  00000+0  13308-2 0  9990
2 47743  53.0532 261.3867 0001584  77.7674 282.3492 15.06436494142272
STARLINK-2158           
1 47744U 21017Y   23269.36032993  .00020404  00000+0  13840-2 0  9991
2 47744  53.0522 260.8617 0001488  75.8288 284.2866 15.06420081142970
STARLINK-2159           
1 47745U 21017Z   23269.39354096  .00017024  00000+0  11580-2 0  9999
2 47745  53.0529 270.7607 0001249  88.2152 271.8980 15.06432084142155
STARLINK-2160           
1 47746U 21017AA  23269.38613598  .00016088  00000+0  10953-2 0  9996
2 47746  53.0525 270.7936 0001561 104.7459 255.3703 15.06438810142779
STARLINK-2161           
1 47747U 21017AB  23269.38338046  .00023449  00000+0  15859-2 0  9998
2 47747  53.0527 260.8068 0001597  78.1825 281.9343 15.06446210142956
STARLINK-2162           
1 47748U 21017AC  23269.37601831  .00002321  00000+0  17466-3 0  9996
2 47748  53.0521 260.8357 0001538  94.7447 265.3718 15.06396452142922
STARLINK-2163           
1 47749U 21017AD  23269.19170923  .00023643  00000+0  15992-2 0  9991
2 47749  53.0528 261.6684 0001491 106.4329 253.6824 15.06437661142892
STARLINK-2164           
1 47750U 21017AE  23269.36862730  .00017772  00000+0  12076-2 0  9992
2 47750  53.0520 260.8708 0001711 107.1159 253.0017 15.06441691142298
STARLINK-2168           
1 47751U 21017AF  23269.33269249  .00021594  00000+0  14615-2 0  9994
2 47751  53.0519 251.0345 0001420  96.0126 264.1025 15.06467765143061
STARLINK-2169           
1 47752U 21017AG  23269.23364172  .00020869  00000+0  14148-2 0  9990
2 47752  53.0528 266.4789 0001557  83.0024 277.1142 15.06424449142883
